{
  "type": "FeatureCollection",
  "features": [
    {
      "type": "Feature",
      "properties": {
        "norad_id": 41556,
        "name": "ZIYUAN 3-2 (ZY 3-2)",
        "group": "resource",
        "lat": -44.403617068511785,
        "lon": -129.68812015357383,
        "alt_km": 501.52459433385593,
        "timestamp": "2025-12-09T09:46:47.304366+00:00",
        "meta_object_name": "ZIYUAN 3-2 (ZY 3-2)",
        "meta_object_id": "2016-033A",
        "meta_epoch": "2025-12-08T23:19:22.242144",
        "meta_mean_motion": 15.21416201,
        "meta_eccentricity": 0.0012422,
        "meta_inclination": 97.4043,
        "meta_ra_of_asc_node": 57.2007,
        "meta_arg_of_pericenter": 263.8354,
        "meta_mean_anomaly": 96.1467,
        "meta_ephemeris_type": 0,
        "meta_classification_type": "U",
        "meta_norad_cat_id": 41556,
        "meta_element_set_no": 999,
        "meta_rev_at_epoch": 52906,
        "meta_bstar": 0.00041560333,
        "meta_mean_motion_dot": 9.282e-05,
        "meta_mean_motion_ddot": 0,
        "tle_line1": "1 41556U 16033A   25342.97178521  .00009282  00000+0  41560-3 0  9999",
        "tle_line2": "2 41556  97.4043  57.2007 0012422 263.8354  96.1467 15.21416201529061"
      },
      "geometry": {
        "type": "Point",
        "coordinates": [
          -129.68812015357383,
          -44.403617068511785
        ]
      }
    },
    {
      "type": "Feature",
      "properties": {
        "norad_id": 41599,
        "name": "CARTOSAT-2C",
        "group": "resource",
        "lat": -15.157105884915168,
        "lon": -141.34711351257917,
        "alt_km": 516.7233687790113,
        "timestamp": "2025-12-09T09:46:47.304377+00:00",
        "meta_object_name": "CARTOSAT-2C",
        "meta_object_id": "2016-040A",
        "meta_epoch": "2025-12-09T04:10:55.701984",
        "meta_mean_motion": 15.1923886,
        "meta_eccentricity": 0.001084,
        "meta_inclination": 97.4766,
        "meta_ra_of_asc_node": 40.4608,
        "meta_arg_of_pericenter": 75.635,
        "meta_mean_anomaly": 284.6087,
        "meta_ephemeris_type": 0,
        "meta_classification_type": "U",
        "meta_norad_cat_id": 41599,
        "meta_element_set_no": 999,
        "meta_rev_at_epoch": 52486,
        "meta_bstar": 0.00026584,
        "meta_mean_motion_dot": 5.541e-05,
        "meta_mean_motion_ddot": 0,
        "tle_line1": "1 41599U 16040A   25343.17425581  .00005541  00000+0  26584-3 0  9991",
        "tle_line2": "2 41599  97.4766  40.4608 0010840  75.6350 284.6087 15.19238860524863"
      },
      "geometry": {
        "type": "Point",
        "coordinates": [
          -141.34711351257917,
          -15.157105884915168
        ]
      }
    },
    {
      "type": "Feature",
      "properties": {
        "norad_id": 41601,
        "name": "SKYSAT-C1",
        "group": "resource",
        "lat": 82.86647499088694,
        "lon": -81.06767801296171,
        "alt_km": 460.15182454565456,
        "timestamp": "2025-12-09T09:46:47.304388+00:00",
        "meta_object_name": "SKYSAT-C1",
        "meta_object_id": "2016-040C",
        "meta_epoch": "2025-12-09T01:32:49.174656",
        "meta_mean_motion": 15.32485031,
        "meta_eccentricity": 0.0002781,
        "meta_inclination": 96.9825,
        "meta_ra_of_asc_node": 20.2852,
        "meta_arg_of_pericenter": 26.1748,
        "meta_mean_anomaly": 333.9635,
        "meta_ephemeris_type": 0,
        "meta_classification_type": "U",
        "meta_norad_cat_id": 41601,
        "meta_element_set_no": 999,
        "meta_rev_at_epoch": 52871,
        "meta_bstar": 0.00036453,
        "meta_mean_motion_dot": 0.00011368,
        "meta_mean_motion_ddot": 0,
        "tle_line1": "1 41601U 16040C   25343.06445804  .00011368  00000+0  36453-3 0  9993",
        "tle_line2": "2 41601  96.9825  20.2852 0002781  26.1748 333.9635 15.32485031528715"
      },
      "geometry": {
        "type": "Point",
        "coordinates": [
          -81.06767801296171,
          82.86647499088694
        ]
      }
    },
    {
      "type": "Feature",
      "properties": {
        "norad_id": 41603,
        "name": "LAPAN-A3",
        "group": "resource",
        "lat": -66.13094756699832,
        "lon": 144.6205705043718,
        "alt_km": 479.72463023851924,
        "timestamp": "2025-12-09T09:46:47.304398+00:00",
        "meta_object_name": "LAPAN-A3",
        "meta_object_id": "2016-040E",
        "meta_epoch": "2025-12-09T05:34:01.752672",
        "meta_mean_motion": 15.31507429,
        "meta_eccentricity": 0.0010075,
        "meta_inclination": 97.1431,
        "meta_ra_of_asc_node": 340.9155,
        "meta_arg_of_pericenter": 347.3273,
        "meta_mean_anomaly": 12.7714,
        "meta_ephemeris_type": 0,
        "meta_classification_type": "U",
        "meta_norad_cat_id": 41603,
        "meta_element_set_no": 999,
        "meta_rev_at_epoch": 52572,
        "meta_bstar": 0.00017567,
        "meta_mean_motion_dot": 5.278e-05,
        "meta_mean_motion_ddot": 0,
        "tle_line1": "1 41603U 16040E   25343.23196473  .00005278  00000+0  17567-3 0  9997",
        "tle_line2": "2 41603  97.1431 340.9155 0010075 347.3273  12.7714 15.31507429525720"
      },
      "geometry": {
        "type": "Point",
        "coordinates": [
          144.6205705043718,
          -66.13094756699832
        ]
      }
    },
    {
      "type": "Feature",
      "properties": {
        "norad_id": 41604,
        "name": "BIROS",
        "group": "resource",
        "lat": 75.93544622490951,
        "lon": -135.59726350266882,
        "alt_km": 298.7674386043436,
        "timestamp": "2025-12-09T09:46:47.304409+00:00",
        "meta_object_name": "BIROS",
        "meta_object_id": "2016-040F",
        "meta_epoch": "2025-12-09T01:47:24.558720",
        "meta_mean_motion": 15.88119261,
        "meta_eccentricity": 0.0003203,
        "meta_inclination": 97.0691,
        "meta_ra_of_asc_node": 14.3635,
        "meta_arg_of_pericenter": 156.004,
        "meta_mean_anomaly": 204.1383,
        "meta_ephemeris_type": 0,
        "meta_classification_type": "U",
        "meta_norad_cat_id": 41604,
        "meta_element_set_no": 999,
        "meta_rev_at_epoch": 52814,
        "meta_bstar": 0.00066699,
        "meta_mean_motion_dot": 0.00184271,
        "meta_mean_motion_ddot": 0,
        "tle_line1": "1 41604U 16040F   25343.07458980  .00184271  00000+0  66699-3 0  9995",
        "tle_line2": "2 41604  97.0691  14.3635 0003203 156.0040 204.1383 15.88119261528148"
      },
      "geometry": {
        "type": "Point",
        "coordinates": [
          -135.59726350266882,
          75.93544622490951
        ]
      }
    },
    {
      "type": "Feature",
      "properties": {
        "norad_id": 41727,
        "name": "GAOFEN-3",
        "group": "resource",
        "lat": 13.795288658405033,
        "lon": -13.03580634618065,
        "alt_km": 751.5062412035477,
        "timestamp": "2025-12-09T09:46:47.304420+00:00",
        "meta_object_name": "GAOFEN-3",
        "meta_object_id": "2016-049A",
        "meta_epoch": "2025-12-09T04:43:12.379584",
        "meta_mean_motion": 14.42212571,
        "meta_eccentricity": 0.0001523,
        "meta_inclination": 98.4035,
        "meta_ra_of_asc_node": 348.8367,
        "meta_arg_of_pericenter": 65.5175,
        "meta_mean_anomaly": 294.6173,
        "meta_ephemeris_type": 0,
        "meta_classification_type": "U",
        "meta_norad_cat_id": 41727,
        "meta_element_set_no": 999,
        "meta_rev_at_epoch": 49126,
        "meta_bstar": 7.4699e-05,
        "meta_mean_motion_dot": 2.03e-06,
        "meta_mean_motion_ddot": 0,
        "tle_line1": "1 41727U 16049A   25343.19667106  .00000203  00000+0  74699-4 0  9997",
        "tle_line2": "2 41727  98.4035 348.8367 0001523  65.5175 294.6173 14.42212571491264"
      },
      "geometry": {
        "type": "Point",
        "coordinates": [
          -13.03580634618065,
          13.795288658405033
        ]
      }
    },
    {
      "type": "Feature",
      "properties": {
        "norad_id": 41771,
        "name": "SKYSAT-C4",
        "group": "resource",
        "lat": -82.94281732842906,
        "lon": 88.35265836078842,
        "alt_km": 447.90701702751176,
        "timestamp": "2025-12-09T09:46:47.304430+00:00",
        "meta_object_name": "SKYSAT-C4",
        "meta_object_id": "2016-058B",
        "meta_epoch": "2025-12-09T00:49:12.472896",
        "meta_mean_motion": 15.42085038,
        "meta_eccentricity": 0.0001157,
        "meta_inclination": 96.9374,
        "meta_ra_of_asc_node": 8.402,
        "meta_arg_of_pericenter": 132.7744,
        "meta_mean_anomaly": 227.3602,
        "meta_ephemeris_type": 0,
        "meta_classification_type": "U",
        "meta_norad_cat_id": 41771,
        "meta_element_set_no": 999,
        "meta_rev_at_epoch": 51610,
        "meta_bstar": 0.00040944,
        "meta_mean_motion_dot": 0.00017439,
        "meta_mean_motion_ddot": 0,
        "tle_line1": "1 41771U 16058B   25343.03417214  .00017439  00000+0  40944-3 0  9996",
        "tle_line2": "2 41771  96.9374   8.4020 0001157 132.7744 227.3602 15.42085038516107"
      },
      "geometry": {
        "type": "Point",
        "coordinates": [
          88.35265836078842,
          -82.94281732842906
        ]
      }
    }
  ]
}